[{"OBJECT_NAME":"OCO 2","OBJECT_ID":"2014-035A","EPOCH":"2026-03-28T12:53:40.800192","MEAN_MOTION":14.57115106,"ECCENTRICITY":0.00015127,"INCLINATION":98.1954,"RA_OF_ASC_NODE":30.0878,"ARG_OF_PERICENTER":92.7847,"MEAN_ANOMALY":267.3524,"EPHEMERIS_TYPE":0,"CLASSIFICATION_TYPE":"U","NORAD_CAT_ID":40059,"ELEMENT_SET_NO":999,"REV_AT_EPOCH":62430,"BSTAR":0.00012852211,"MEAN_MOTION_DOT":5.34e-6,"MEAN_MOTION_DDOT":0},{"OBJECT_NAME":"BRITE-PL2 (HEWELIUSZ)","OBJECT_ID":"2014-049B","EPOCH":"2026-03-28T06:56:50.060256","MEAN_MOTION":14.94273158,"ECCENTRICITY":0.0014408,"INCLINATION":97.8992,"RA_OF_ASC_NODE":198.7296,"ARG_OF_PERICENTER":23.015,"MEAN_ANOMALY":337.1713,"EPHEMERIS_TYPE":0,"CLASSIFICATION_TYPE":"U","NORAD_CAT_ID":40119,"ELEMENT_SET_NO":999,"REV_AT_EPOCH":62936,"BSTAR":0.00019683,"MEAN_MOTION_DOT":2.057e-5,"MEAN_MOTION_DDOT":0},{"OBJECT_NAME":"MMS 1","OBJECT_ID":"2015-011A","EPOCH":"2026-03-28T14:00:01.999872","MEAN_MOTION":0.28106805,"ECCENTRICITY":0.83955664,"INCLINATION":71.0506,"RA_OF_ASC_NODE":349.873,"ARG_OF_PERICENTER":165.8106,"MEAN_ANOMALY":356.5037,"EPHEMERIS_TYPE":0,"CLASSIFICATION_TYPE":"U","NORAD_CAT_ID":40482,"ELEMENT_SET_NO":999,"REV_AT_EPOCH":130,"BSTAR":0,"MEAN_MOTION_DOT":-1.699e-5,"MEAN_MOTION_DDOT":0},{"OBJECT_NAME":"MMS 2","OBJECT_ID":"2015-011B","EPOCH":"2026-03-28T14:00:01.999872","MEAN_MOTION":0.28112044,"ECCENTRICITY":0.83960679,"INCLINATION":71.051,"RA_OF_ASC_NODE":349.875,"ARG_OF_PERICENTER":165.817,"MEAN_ANOMALY":356.4874,"EPHEMERIS_TYPE":0,"CLASSIFICATION_TYPE":"U","NORAD_CAT_ID":40483,"ELEMENT_SET_NO":999,"REV_AT_EPOCH":130,"BSTAR":0,"MEAN_MOTION_DOT":-1.699e-5,"MEAN_MOTION_DDOT":0},{"OBJECT_NAME":"MMS 3","OBJECT_ID":"2015-011C","EPOCH":"2026-03-28T14:00:01.999872","MEAN_MOTION":0.28112632,"ECCENTRICITY":0.83953086,"INCLINATION":71.0536,"RA_OF_ASC_NODE":349.8796,"ARG_OF_PERICENTER":165.8112,"MEAN_ANOMALY":356.4931,"EPHEMERIS_TYPE":0,"CLASSIFICATION_TYPE":"U","NORAD_CAT_ID":40484,"ELEMENT_SET_NO":999,"REV_AT_EPOCH":130,"BSTAR":0,"MEAN_MOTION_DOT":-1.698e-5,"MEAN_MOTION_DDOT":0},{"OBJECT_NAME":"MMS 4","OBJECT_ID":"2015-011D","EPOCH":"2026-03-28T14:00:01.999872","MEAN_MOTION":0.28105772,"ECCENTRICITY":0.83951328,"INCLINATION":71.051,"RA_OF_ASC_NODE":349.8751,"ARG_OF_PERICENTER":165.8183,"MEAN_ANOMALY":356.4807,"EPHEMERIS_TYPE":0,"CLASSIFICATION_TYPE":"U","NORAD_CAT_ID":40485,"ELEMENT_SET_NO":999,"REV_AT_EPOCH":130,"BSTAR":0,"MEAN_MOTION_DOT":-1.699e-5,"MEAN_MOTION_DDOT":0},{"OBJECT_NAME":"ASTROSAT","OBJECT_ID":"2015-052A","EPOCH":"2026-03-28T08:37:19.856640","MEAN_MOTION":14.82346888,"ECCENTRICITY":0.00083643,"INCLINATION":5.998,"RA_OF_ASC_NODE":17.0902,"ARG_OF_PERICENTER":317.502,"MEAN_ANOMALY":42.4461,"EPHEMERIS_TYPE":0,"CLASSIFICATION_TYPE":"U","NORAD_CAT_ID":40930,"ELEMENT_SET_NO":999,"REV_AT_EPOCH":56781,"BSTAR":0.0001633622,"MEAN_MOTION_DOT":2.009e-5,"MEAN_MOTION_DDOT":0},{"OBJECT_NAME":"DAMPE","OBJECT_ID":"2015-078A","EPOCH":"2026-03-28T15:06:25.672320","MEAN_MOTION":15.3056447,"ECCENTRICITY":0.00124746,"INCLINATION":97.4589,"RA_OF_ASC_NODE":92.7066,"ARG_OF_PERICENTER":10.4101,"MEAN_ANOMALY":349.7395,"EPHEMERIS_TYPE":0,"CLASSIFICATION_TYPE":"U","NORAD_CAT_ID":41173,"ELEMENT_SET_NO":999,"REV_AT_EPOCH":57222,"BSTAR":5.0227614e-5,"MEAN_MOTION_DOT":1.409e-5,"MEAN_MOTION_DDOT":0},{"OBJECT_NAME":"PISAT","OBJECT_ID":"2016-059B","EPOCH":"2026-03-28T13:25:31.921536","MEAN_MOTION":14.68820067,"ECCENTRICITY":0.00305711,"INCLINATION":97.8193,"RA_OF_ASC_NODE":91.4845,"ARG_OF_PERICENTER":102.5365,"MEAN_ANOMALY":257.9263,"EPHEMERIS_TYPE":0,"CLASSIFICATION_TYPE":"U","NORAD_CAT_ID":41784,"ELEMENT_SET_NO":999,"REV_AT_EPOCH":50790,"BSTAR":0.00021124292,"MEAN_MOTION_DOT":1.195e-5,"MEAN_MOTION_DDOT":0},{"OBJECT_NAME":"HXMT (HUIYAN)","OBJECT_ID":"2017-034A","EPOCH":"2026-03-28T14:26:06.641664","MEAN_MOTION":15.17697736,"ECCENTRICITY":0.0031927,"INCLINATION":43.0138,"RA_OF_ASC_NODE":271.5127,"ARG_OF_PERICENTER":351.752,"MEAN_ANOMALY":8.28,"EPHEMERIS_TYPE":0,"CLASSIFICATION_TYPE":"U","NORAD_CAT_ID":42758,"ELEMENT_SET_NO":999,"REV_AT_EPOCH":48541,"BSTAR":0.00028805835,"MEAN_MOTION_DOT":5.75e-5,"MEAN_MOTION_DDOT":0},{"OBJECT_NAME":"FLYING LAPTOP","OBJECT_ID":"2017-042G","EPOCH":"2026-03-28T13:58:53.223744","MEAN_MOTION":15.00639476,"ECCENTRICITY":0.00200313,"INCLINATION":97.4331,"RA_OF_ASC_NODE":246.4243,"ARG_OF_PERICENTER":37.1156,"MEAN_ANOMALY":323.1449,"EPHEMERIS_TYPE":0,"CLASSIFICATION_TYPE":"U","NORAD_CAT_ID":42831,"ELEMENT_SET_NO":999,"REV_AT_EPOCH":47436,"BSTAR":0.0003007306,"MEAN_MOTION_DOT":3.761e-5,"MEAN_MOTION_DDOT":0},{"OBJECT_NAME":"ZHANGHENG 1-01 (CSES-1)","OBJECT_ID":"2018-015C","EPOCH":"2026-03-28T14:31:59.874240","MEAN_MOTION":15.20760024,"ECCENTRICITY":0.00183213,"INCLINATION":97.6784,"RA_OF_ASC_NODE":251.6915,"ARG_OF_PERICENTER":171.8394,"MEAN_ANOMALY":188.3142,"EPHEMERIS_TYPE":0,"CLASSIFICATION_TYPE":"U","NORAD_CAT_ID":43194,"ELEMENT_SET_NO":999,"REV_AT_EPOCH":45239,"BSTAR":0.00053757683,"MEAN_MOTION_DOT":0.00011827,"MEAN_MOTION_DDOT":0},{"OBJECT_NAME":"SALSAT","OBJECT_ID":"2020-068K","EPOCH":"2026-03-28T12:41:19.479552","MEAN_MOTION":15.285403,"ECCENTRICITY":0.00086745,"INCLINATION":97.8863,"RA_OF_ASC_NODE":85.7603,"ARG_OF_PERICENTER":217.3238,"MEAN_ANOMALY":142.7398,"EPHEMERIS_TYPE":0,"CLASSIFICATION_TYPE":"U","NORAD_CAT_ID":46495,"ELEMENT_SET_NO":999,"REV_AT_EPOCH":30303,"BSTAR":0.00037480321,"MEAN_MOTION_DOT":0.0001034,"MEAN_MOTION_DDOT":0},{"OBJECT_NAME":"IXPE","OBJECT_ID":"2021-121A","EPOCH":"2026-03-28T14:00:01.999872","MEAN_MOTION":15.09448891,"ECCENTRICITY":0.0006853,"INCLINATION":0.2283,"RA_OF_ASC_NODE":206.6493,"ARG_OF_PERICENTER":300.5428,"MEAN_ANOMALY":232.8263,"EPHEMERIS_TYPE":0,"CLASSIFICATION_TYPE":"U","NORAD_CAT_ID":49954,"ELEMENT_SET_NO":999,"REV_AT_EPOCH":578,"BSTAR":0.00066940138,"MEAN_MOTION_DOT":0.00011968,"MEAN_MOTION_DDOT":0}]
